STARLINK-36062          
1 66794U 25278D   26068.14664753  .00029648  00000+0  10821-2 0  9996
2 66794  42.9972 117.6427 0001085 283.1516  76.9215 15.27594512 15125
KUIPER-00226            
1 67785U 26030X   26068.62629313  .00046834  00000+0  15530-2 0  9998
2 67785  51.8814 220.1252 0017713  64.2781 296.0030 15.30655594  5078
